{"format": "pbf", "name": "OpenMapTiles", "id": "openmaptiles", "bounds": [-180.0, -85.0511, 180.0, 85.0511], "center": [-12.2168, 28.6135, 4], "maxzoom": 14, "minzoom": 0, "version": "3.11.0", "attribution": "<a href=\"https://www.openmaptiles.org/\" target=\"_blank\">&copy; OpenMapTiles<\/a> <a href=\"https://www.openstreetmap.org/copyright\" target=\"_blank\">&copy; OpenStreetMap contributors<\/a>", "description": "A tileset showcasing all layers in OpenMapTiles. https://openmaptiles.org", "pixel_scale": 256, "tilejson": "2.0.0", "tiles": ["http://postile/{z}/{x}/{y}.pbf"], "vector_layers": [{"id": "water", "fields": {"class": "String", "intermittent": "Number", "brunnel": "String"}, "maxzoom": 14, "minzoom": 0, "description": "Water polygons representing oceans and lakes. Covered watered areas are excluded (`covered=yes`).\nOn low zoom levels all water originates from Natural Earth. To get a more correct display of the south pole you should also\nstyle the covering ice shelves over the water.\nOn higher zoom levels water polygons from [OpenStreetMapData](http://osmdata.openstreetmap.de/) are used.\nThe polygons are split into many smaller polygons to improve rendering performance.\nThis however can lead to less rendering options in clients since these boundaries show up. So you might not be\nable to use border styling for ocean water features."}, {"id": "waterway", "fields": {"name": "String", "name_en": "String", "name_de": "String", "name:am": "String", "name:ar": "String", "name:az": "String", "name:be": "String", "name:bg": "String", "name:br": "String", "name:bs": "String", "name:ca": "String", "name:co": "String", "name:cs": "String", "name:cy": "String", "name:da": "String", "name:de": "String", "name:el": "String", "name:en": "String", "name:eo": "String", "name:es": "String", "name:et": "String", "name:eu": "String", "name:fi": "String", "name:fr": "String", "name:fy": "String", "name:ga": "String", "name:gd": "String", "name:he": "String", "name:hr": "String", "name:hu": "String", "name:hy": "String", "name:id": "String", "name:is": "String", "name:it": "String", "name:ja": "String", "name:ja_kana": "String", "name:ja_rm": "String", "name:ka": "String", "name:kk": "String", "name:kn": "String", "name:ko": "String", "name:ko_rm": "String", "name:ku": "String", "name:la": "String", "name:lb": "String", "name:lt": "String", "name:lv": "String", "name:mk": "String", "name:mt": "String", "name:ml": "String", "name:nl": "String", "name:no": "String", "name:oc": "String", "name:pl": "String", "name:pt": "String", "name:rm": "String", "name:ro": "String", "name:ru": "String", "name:sk": "String", "name:sl": "String", "name:sq": "String", "name:sr": "String", "name:sr-Latn": "String", "name:sv": "String", "name:th": "String", "name:tr": "String", "name:uk": "String", "name:zh": "String", "name_int": "String", "name:latin": "String", "name:nonlatin": "String", "class": "String", "brunnel": "String", "intermittent": "Number"}, "maxzoom": 14, "minzoom": 0, "description": "OpenStreetMap [waterways](https://wiki.openstreetmap.org/wiki/Waterways) for higher zoom levels (z9 and more)\nand Natural Earth rivers and lake centerlines for low zoom levels (z3 - z8).\nLinestrings without a name or which are too short are filtered\nout at low zoom levels.\nTill z11 there is `river` class only, in z12 there is also `canal` generated,\nstarting z13 there is no generalization according to `class` field applied.\nWaterways do not have a `subclass` field."}, {"id": "landcover", "fields": {"class": "String", "subclass": "String"}, "maxzoom": 14, "minzoom": 0, "description": "Landcover is used to describe the physical material at the surface of the earth. At lower zoom levels this is\nfrom Natural Earth data for glaciers and ice shelves and at higher zoom levels the landcover is [implied by OSM tags](http://wiki.openstreetmap.org/wiki/Landcover). The most common use case for this layer\n  is to style wood (`class=wood`) and grass (`class=grass`) areas."}, {"id": "landuse", "fields": {"class": "String"}, "maxzoom": 14, "minzoom": 0, "description": "Landuse is used to describe use of land by humans. At lower zoom levels this is\nfrom Natural Earth data for residential (urban) areas and at higher zoom levels mostly OSM `landuse` tags."}, {"id": "mountain_peak", "fields": {"osm_id": "Number", "name": "String", "name_en": "String", "name_de": "String", "name:am": "String", "name:ar": "String", "name:az": "String", "name:be": "String", "name:bg": "String", "name:br": "String", "name:bs": "String", "name:ca": "String", "name:co": "String", "name:cs": "String", "name:cy": "String", "name:da": "String", "name:de": "String", "name:el": "String", "name:en": "String", "name:eo": "String", "name:es": "String", "name:et": "String", "name:eu": "String", "name:fi": "String", "name:fr": "String", "name:fy": "String", "name:ga": "String", "name:gd": "String", "name:he": "String", "name:hr": "String", "name:hu": "String", "name:hy": "String", "name:id": "String", "name:is": "String", "name:it": "String", "name:ja": "String", "name:ja_kana": "String", "name:ja_rm": "String", "name:ka": "String", "name:kk": "String", "name:kn": "String", "name:ko": "String", "name:ko_rm": "String", "name:ku": "String", "name:la": "String", "name:lb": "String", "name:lt": "String", "name:lv": "String", "name:mk": "String", "name:mt": "String", "name:ml": "String", "name:nl": "String", "name:no": "String", "name:oc": "String", "name:pl": "String", "name:pt": "String", "name:rm": "String", "name:ro": "String", "name:ru": "String", "name:sk": "String", "name:sl": "String", "name:sq": "String", "name:sr": "String", "name:sr-Latn": "String", "name:sv": "String", "name:th": "String", "name:tr": "String", "name:uk": "String", "name:zh": "String", "name_int": "String", "name:latin": "String", "name:nonlatin": "String", "class": "String", "ele": "Number", "ele_ft": "Number", "rank": "Number"}, "maxzoom": 14, "minzoom": 0, "description": "[Natural peaks](http://wiki.openstreetmap.org/wiki/Tag:natural%3Dpeak)"}, {"id": "park", "fields": {"class": "String", "name": "String", "name_en": "String", "name_de": "String", "name:am": "String", "name:ar": "String", "name:az": "String", "name:be": "String", "name:bg": "String", "name:br": "String", "name:bs": "String", "name:ca": "String", "name:co": "String", "name:cs": "String", "name:cy": "String", "name:da": "String", "name:de": "String", "name:el": "String", "name:en": "String", "name:eo": "String", "name:es": "String", "name:et": "String", "name:eu": "String", "name:fi": "String", "name:fr": "String", "name:fy": "String", "name:ga": "String", "name:gd": "String", "name:he": "String", "name:hr": "String", "name:hu": "String", "name:hy": "String", "name:id": "String", "name:is": "String", "name:it": "String", "name:ja": "String", "name:ja_kana": "String", "name:ja_rm": "String", "name:ka": "String", "name:kk": "String", "name:kn": "String", "name:ko": "String", "name:ko_rm": "String", "name:ku": "String", "name:la": "String", "name:lb": "String", "name:lt": "String", "name:lv": "String", "name:mk": "String", "name:mt": "String", "name:ml": "String", "name:nl": "String", "name:no": "String", "name:oc": "String", "name:pl": "String", "name:pt": "String", "name:rm": "String", "name:ro": "String", "name:ru": "String", "name:sk": "String", "name:sl": "String", "name:sq": "String", "name:sr": "String", "name:sr-Latn": "String", "name:sv": "String", "name:th": "String", "name:tr": "String", "name:uk": "String", "name:zh": "String", "name_int": "String", "name:latin": "String", "name:nonlatin": "String", "rank": "Number"}, "maxzoom": 14, "minzoom": 0, "description": "The park layer contains parks from OpenStreetMap tagged with either [`boundary=national_park`](http://wiki.openstreetmap.org/wiki/Tag:boundary%3Dnational_park) or [`leisure=nature_reserve`](http://wiki.openstreetmap.org/wiki/Tag:leisure%3Dnature_reserve)."}, {"id": "boundary", "fields": {"admin_level": "Number", "disputed": "Number", "disputed_name": "String", "claimed_by": "String", "maritime": "Number"}, "maxzoom": 14, "minzoom": 0, "description": "Contains administrative boundaries as linestrings.\nUntil z4 [Natural Earth data](http://www.naturalearthdata.com/downloads/) is used after which\nOSM boundaries ([`boundary=administrative`](http://wiki.openstreetmap.org/wiki/Tag:boundary%3Dadministrative))\nare present from z5 to z14 (also for maritime boundaries with `admin_level <= 2` at z4).\nOSM data contains several [`admin_level`](http://wiki.openstreetmap.org/wiki/Tag:boundary%3Dadministrative#admin_level)\nbut for most styles it makes sense to just style `admin_level=2` and `admin_level=4`."}, {"id": "aeroway", "fields": {"ref": "String", "class": "String"}, "maxzoom": 14, "minzoom": 0, "description": "Aeroway polygons based of OpenStreetMap [aeroways](http://wiki.openstreetmap.org/wiki/Aeroways).\nAirport buildings are contained in the **building** layer but all\nother airport related polygons can be found in the **aeroway** layer."}, {"id": "transportation", "fields": {"class": "String", "subclass": "String", "oneway": "Number", "ramp": "Number", "brunnel": "String", "service": "String", "layer": "Number", "level": "Number", "indoor": "Number", "bicycle": "String", "foot": "String", "horse": "String", "mtb_scale": "String", "surface": "String"}, "maxzoom": 14, "minzoom": 0, "description": "**transportation** contains roads, railways, aerial ways, and shipping\n lines.\nThis layer is directly derived from the OSM road hierarchy.\nAt lower zoom levels major highways from Natural Earth are used.\nIt contains all roads from motorways to primary, secondary and\ntertiary roads to residential roads and\nfoot paths. Styling the roads is the most essential part of the map.\nThe `transportation` layer also contains polygons for features like plazas."}, {"id": "building", "fields": {"render_height": "Number", "render_min_height": "Number", "colour": "String", "hide_3d": "Boolean"}, "maxzoom": 14, "minzoom": 0, "description": "All [OSM Buildings](http://wiki.openstreetmap.org/wiki/Buildings). All building tags are imported ([`building=*`](http://wiki.openstreetmap.org/wiki/Key:building)). The buildings are not yet ready for 3D rendering support and any help to improve\nthis is welcomed."}, {"id": "water_name", "fields": {"osm_id": "Number", "name": "String", "name_en": "String", "name_de": "String", "name:am": "String", "name:ar": "String", "name:az": "String", "name:be": "String", "name:bg": "String", "name:br": "String", "name:bs": "String", "name:ca": "String", "name:co": "String", "name:cs": "String", "name:cy": "String", "name:da": "String", "name:de": "String", "name:el": "String", "name:en": "String", "name:eo": "String", "name:es": "String", "name:et": "String", "name:eu": "String", "name:fi": "String", "name:fr": "String", "name:fy": "String", "name:ga": "String", "name:gd": "String", "name:he": "String", "name:hr": "String", "name:hu": "String", "name:hy": "String", "name:id": "String", "name:is": "String", "name:it": "String", "name:ja": "String", "name:ja_kana": "String", "name:ja_rm": "String", "name:ka": "String", "name:kk": "String", "name:kn": "String", "name:ko": "String", "name:ko_rm": "String", "name:ku": "String", "name:la": "String", "name:lb": "String", "name:lt": "String", "name:lv": "String", "name:mk": "String", "name:mt": "String", "name:ml": "String", "name:nl": "String", "name:no": "String", "name:oc": "String", "name:pl": "String", "name:pt": "String", "name:rm": "String", "name:ro": "String", "name:ru": "String", "name:sk": "String", "name:sl": "String", "name:sq": "String", "name:sr": "String", "name:sr-Latn": "String", "name:sv": "String", "name:th": "String", "name:tr": "String", "name:uk": "String", "name:zh": "String", "name_int": "String", "name:latin": "String", "name:nonlatin": "String", "class": "String", "intermittent": "Number"}, "maxzoom": 14, "minzoom": 0, "description": "Lake center lines for labelling lake bodies.\nThis is based of the [osm-lakelines](https://github.com/lukasmartinelli/osm-lakelines) project\nwhich derives nice centerlines from OSM water bodies. Only the most important lakes contain labels."}, {"id": "transportation_name", "fields": {"name": "String", "name_en": "String", "name_de": "String", "name:am": "String", "name:ar": "String", "name:az": "String", "name:be": "String", "name:bg": "String", "name:br": "String", "name:bs": "String", "name:ca": "String", "name:co": "String", "name:cs": "String", "name:cy": "String", "name:da": "String", "name:de": "String", "name:el": "String", "name:en": "String", "name:eo": "String", "name:es": "String", "name:et": "String", "name:eu": "String", "name:fi": "String", "name:fr": "String", "name:fy": "String", "name:ga": "String", "name:gd": "String", "name:he": "String", "name:hr": "String", "name:hu": "String", "name:hy": "String", "name:id": "String", "name:is": "String", "name:it": "String", "name:ja": "String", "name:ja_kana": "String", "name:ja_rm": "String", "name:ka": "String", "name:kk": "String", "name:kn": "String", "name:ko": "String", "name:ko_rm": "String", "name:ku": "String", "name:la": "String", "name:lb": "String", "name:lt": "String", "name:lv": "String", "name:mk": "String", "name:mt": "String", "name:ml": "String", "name:nl": "String", "name:no": "String", "name:oc": "String", "name:pl": "String", "name:pt": "String", "name:rm": "String", "name:ro": "String", "name:ru": "String", "name:sk": "String", "name:sl": "String", "name:sq": "String", "name:sr": "String", "name:sr-Latn": "String", "name:sv": "String", "name:th": "String", "name:tr": "String", "name:uk": "String", "name:zh": "String", "name_int": "String", "name:latin": "String", "name:nonlatin": "String", "ref": "String", "ref_length": "Number", "network": "String", "class": "String", "subclass": "String", "layer": "Number", "level": "Number", "indoor": "Number"}, "maxzoom": 14, "minzoom": 0, "description": "This is the layer for labelling the highways. Only highways that are named `name=*` and are long enough\nto place text upon appear. The OSM roads are stitched together if they contain the same name\nto have better label placement than having many small linestrings.\nFor motorways you should use the `ref` field to label them while for other roads you should use `name`."}, {"id": "place", "fields": {"osm_id": "Number", "name": "String", "name_en": "String", "name_de": "String", "name:am": "String", "name:ar": "String", "name:az": "String", "name:be": "String", "name:bg": "String", "name:br": "String", "name:bs": "String", "name:ca": "String", "name:co": "String", "name:cs": "String", "name:cy": "String", "name:da": "String", "name:de": "String", "name:el": "String", "name:en": "String", "name:eo": "String", "name:es": "String", "name:et": "String", "name:eu": "String", "name:fi": "String", "name:fr": "String", "name:fy": "String", "name:ga": "String", "name:gd": "String", "name:he": "String", "name:hr": "String", "name:hu": "String", "name:hy": "String", "name:id": "String", "name:is": "String", "name:it": "String", "name:ja": "String", "name:ja_kana": "String", "name:ja_rm": "String", "name:ka": "String", "name:kk": "String", "name:kn": "String", "name:ko": "String", "name:ko_rm": "String", "name:ku": "String", "name:la": "String", "name:lb": "String", "name:lt": "String", "name:lv": "String", "name:mk": "String", "name:mt": "String", "name:ml": "String", "name:nl": "String", "name:no": "String", "name:oc": "String", "name:pl": "String", "name:pt": "String", "name:rm": "String", "name:ro": "String", "name:ru": "String", "name:sk": "String", "name:sl": "String", "name:sq": "String", "name:sr": "String", "name:sr-Latn": "String", "name:sv": "String", "name:th": "String", "name:tr": "String", "name:uk": "String", "name:zh": "String", "name_int": "String", "name:latin": "String", "name:nonlatin": "String", "class": "String", "rank": "Number", "capital": "Number", "iso_a2": "String"}, "maxzoom": 14, "minzoom": 0, "description": "The place layer consists out of [countries](http://wiki.openstreetmap.org/wiki/Tag:place%3Dcountry),\n[states](http://wiki.openstreetmap.org/wiki/Tag:place%3Dstate) and [cities](http://wiki.openstreetmap.org/wiki/Key:place).\nApart from the roads this is also one of the more important layers to create a beautiful map.\nWe suggest you use different font styles and sizes to create a text hierarchy."}, {"id": "housenumber", "fields": {"housenumber": "String"}, "maxzoom": 14, "minzoom": 0, "description": "Everything in OpenStreetMap which contains a `addr:housenumber` tag useful for labelling housenumbers on a map.\nThis adds significant size to *z14*. For buildings the centroid of the building is used as housenumber."}, {"id": "poi", "fields": {"osm_id": "Number", "name": "String", "name_en": "String", "name_de": "String", "name:am": "String", "name:ar": "String", "name:az": "String", "name:be": "String", "name:bg": "String", "name:br": "String", "name:bs": "String", "name:ca": "String", "name:co": "String", "name:cs": "String", "name:cy": "String", "name:da": "String", "name:de": "String", "name:el": "String", "name:en": "String", "name:eo": "String", "name:es": "String", "name:et": "String", "name:eu": "String", "name:fi": "String", "name:fr": "String", "name:fy": "String", "name:ga": "String", "name:gd": "String", "name:he": "String", "name:hr": "String", "name:hu": "String", "name:hy": "String", "name:id": "String", "name:is": "String", "name:it": "String", "name:ja": "String", "name:ja_kana": "String", "name:ja_rm": "String", "name:ka": "String", "name:kk": "String", "name:kn": "String", "name:ko": "String", "name:ko_rm": "String", "name:ku": "String", "name:la": "String", "name:lb": "String", "name:lt": "String", "name:lv": "String", "name:mk": "String", "name:mt": "String", "name:ml": "String", "name:nl": "String", "name:no": "String", "name:oc": "String", "name:pl": "String", "name:pt": "String", "name:rm": "String", "name:ro": "String", "name:ru": "String", "name:sk": "String", "name:sl": "String", "name:sq": "String", "name:sr": "String", "name:sr-Latn": "String", "name:sv": "String", "name:th": "String", "name:tr": "String", "name:uk": "String", "name:zh": "String", "name_int": "String", "name:latin": "String", "name:nonlatin": "String", "class": "String", "subclass": "String", "agg_stop": "Number", "layer": "Number", "level": "Number", "indoor": "Number", "rank": "Number"}, "maxzoom": 14, "minzoom": 0, "description": "[Points of interests](http://wiki.openstreetmap.org/wiki/Points_of_interest) containing\na of a variety of OpenStreetMap tags. Mostly contains amenities, sport, shop and tourist POIs."}, {"id": "aerodrome_label", "fields": {"osm_id": "Number", "name": "String", "name_en": "String", "name_de": "String", "name:am": "String", "name:ar": "String", "name:az": "String", "name:be": "String", "name:bg": "String", "name:br": "String", "name:bs": "String", "name:ca": "String", "name:co": "String", "name:cs": "String", "name:cy": "String", "name:da": "String", "name:de": "String", "name:el": "String", "name:en": "String", "name:eo": "String", "name:es": "String", "name:et": "String", "name:eu": "String", "name:fi": "String", "name:fr": "String", "name:fy": "String", "name:ga": "String", "name:gd": "String", "name:he": "String", "name:hr": "String", "name:hu": "String", "name:hy": "String", "name:id": "String", "name:is": "String", "name:it": "String", "name:ja": "String", "name:ja_kana": "String", "name:ja_rm": "String", "name:ka": "String", "name:kk": "String", "name:kn": "String", "name:ko": "String", "name:ko_rm": "String", "name:ku": "String", "name:la": "String", "name:lb": "String", "name:lt": "String", "name:lv": "String", "name:mk": "String", "name:mt": "String", "name:ml": "String", "name:nl": "String", "name:no": "String", "name:oc": "String", "name:pl": "String", "name:pt": "String", "name:rm": "String", "name:ro": "String", "name:ru": "String", "name:sk": "String", "name:sl": "String", "name:sq": "String", "name:sr": "String", "name:sr-Latn": "String", "name:sv": "String", "name:th": "String", "name:tr": "String", "name:uk": "String", "name:zh": "String", "name_int": "String", "name:latin": "String", "name:nonlatin": "String", "class": "String", "iata": "String", "icao": "String", "ele": "Number", "ele_ft": "Number"}, "maxzoom": 14, "minzoom": 0, "description": "[Aerodrome labels](http://wiki.openstreetmap.org/wiki/Tag:aeroway%3Daerodrome)"}]}